IRIDIUM 124             
1 42810U 17039H   26116.95559918  .00000089  00000+0  20358-4 0  9990
2 42810  86.4457 311.7967 0002217  89.1796 270.9659 14.43281226467724
IRIDIUM 128             
1 42811U 17039J   26116.85952248 -.00000001  00000+0 -72444-5 0  9993
2 42811  86.3987  46.5995 0002266  80.3107 279.8345 14.34217398462622
IRIDIUM 121             
1 42812U 17039K   26116.74829476  .00000260  00000+0  85867-4 0  9995
2 42812  86.4016  15.1672 0002221  82.3607 277.7841 14.34219823462453
IRIDIUM 133             
1 42955U 17061A   26116.89123534  .00000006  00000+0 -48280-5 0  9994
2 42955  86.3988  46.7026 0002146  84.9976 275.1464 14.34217452447423
IRIDIUM 100             
1 42956U 17061B   26116.81512339  .00000100  00000+0  28528-4 0  9998
2 42956  86.3987  46.6540 0002280  84.7173 275.4283 14.34217454447412
IRIDIUM 122             
1 42957U 17061C   26116.85317972  .00000127  00000+0  38376-4 0  9990
2 42957  86.3988  46.6382 0002288  87.1631 272.9827 14.34218074447428
IRIDIUM 129             
1 42958U 17061D   26116.87854957 -.00000040  00000+0 -21443-4 0  9995
2 42958  86.3988  46.6943 0001828  86.5497 273.5907 14.34217163447440
IRIDIUM 119             
1 42959U 17061E   26116.84683718 -.00000004  00000+0 -83881-5 0  9993
2 42959  86.3987  46.7031 0002119  88.4081 271.7357 14.34217418447456
IRIDIUM 107             
1 42960U 17061F   26116.86586564 -.00000129  00000+0 -53004-4 0  9999
2 42960  86.3989  46.7163 0002351  87.1945 272.9520 14.34217201447465
IRIDIUM 132             
1 42961U 17061G   26116.87220751  .00000030  00000+0  35231-5 0  9996
2 42961  86.3989  46.6930 0002258  85.3731 274.7722 14.34217801447466
IRIDIUM 136             
1 42962U 17061H   26116.83415229 -.00000012  00000+0 -11358-4 0  9994
2 42962  86.3988  46.7157 0002175  87.4511 272.6934 14.34217377447476
IRIDIUM 139             
1 42963U 17061J   26116.84049440  .00000008  00000+0 -43029-5 0  9999
2 42963  86.3990  46.7742 0002214  83.3597 276.7851 14.34217611447488
IRIDIUM 125             
1 42964U 17061K   26116.89757816 -.00000017  00000+0 -13213-4 0  9990
2 42964  86.3990  46.8103 0002284  98.0064 262.1391 14.34217390447505
IRIDIUM 135             
1 43070U 17083A   26116.73216595  .00000144  00000+0  44366-4 0  9992
2 43070  86.3986 343.5337 0002181  86.0997 274.0448 14.34218433436774
IRIDIUM 138             
1 43071U 17083B   26116.68776770  .00000006  00000+0 -48951-5 0  9996
2 43071  86.3993 343.2396 0001866  95.0022 265.1387 14.34217564436758
IRIDIUM 116             
1 43072U 17083C   26116.72582663  .00000234  00000+0  76592-4 0  9991
2 43072  86.3983 343.5232 0002382  79.4355 280.7109 14.34211408436799
IRIDIUM 130             
1 43073U 17083D   26116.69411138 -.00000040  00000+0 -21482-4 0  9991
2 43073  86.3989 343.8060 0002302  85.0818 275.0641 14.34217351436732
