[{"OBJECT_NAME":"IRIDIUM 124","OBJECT_ID":"2017-039H","EPOCH":"2026-04-26T22:56:03.769152","MEAN_MOTION":14.43281226,"ECCENTRICITY":0.00022175,"INCLINATION":86.4457,"RA_OF_ASC_NODE":311.7967,"ARG_OF_PERICENTER":89.1796,"MEAN_ANOMALY":270.9659,"EPHEMERIS_TYPE":0,"CLASSIFICATION_TYPE":"U","NORAD_CAT_ID":42810,"ELEMENT_SET_NO":999,"REV_AT_EPOCH":46772,"BSTAR":2.0357956e-5,"MEAN_MOTION_DOT":8.9e-7,"MEAN_MOTION_DDOT":0},{"OBJECT_NAME":"IRIDIUM 128","OBJECT_ID":"2017-039J","EPOCH":"2026-04-26T20:37:42.742272","MEAN_MOTION":14.34217398,"ECCENTRICITY":0.00022665,"INCLINATION":86.3987,"RA_OF_ASC_NODE":46.5995,"ARG_OF_PERICENTER":80.3107,"MEAN_ANOMALY":279.8345,"EPHEMERIS_TYPE":0,"CLASSIFICATION_TYPE":"U","NORAD_CAT_ID":42811,"ELEMENT_SET_NO":999,"REV_AT_EPOCH":46262,"BSTAR":-7.244385e-6,"MEAN_MOTION_DOT":-1.0e-8,"MEAN_MOTION_DDOT":0},{"OBJECT_NAME":"IRIDIUM 121","OBJECT_ID":"2017-039K","EPOCH":"2026-04-26T17:57:32.667264","MEAN_MOTION":14.34219823,"ECCENTRICITY":0.00022212,"INCLINATION":86.4016,"RA_OF_ASC_NODE":15.1672,"ARG_OF_PERICENTER":82.3607,"MEAN_ANOMALY":277.7841,"EPHEMERIS_TYPE":0,"CLASSIFICATION_TYPE":"U","NORAD_CAT_ID":42812,"ELEMENT_SET_NO":999,"REV_AT_EPOCH":46245,"BSTAR":8.5866628e-5,"MEAN_MOTION_DOT":2.6e-6,"MEAN_MOTION_DDOT":0},{"OBJECT_NAME":"IRIDIUM 133","OBJECT_ID":"2017-061A","EPOCH":"2026-04-26T21:23:22.733376","MEAN_MOTION":14.34217452,"ECCENTRICITY":0.00021466,"INCLINATION":86.3988,"RA_OF_ASC_NODE":46.7026,"ARG_OF_PERICENTER":84.9976,"MEAN_ANOMALY":275.1464,"EPHEMERIS_TYPE":0,"CLASSIFICATION_TYPE":"U","NORAD_CAT_ID":42955,"ELEMENT_SET_NO":999,"REV_AT_EPOCH":44742,"BSTAR":-4.828004e-6,"MEAN_MOTION_DOT":6.0e-8,"MEAN_MOTION_DDOT":0},{"OBJECT_NAME":"IRIDIUM 100","OBJECT_ID":"2017-061B","EPOCH":"2026-04-26T19:33:46.660896","MEAN_MOTION":14.34217454,"ECCENTRICITY":0.00022807,"INCLINATION":86.3987,"RA_OF_ASC_NODE":46.654,"ARG_OF_PERICENTER":84.7173,"MEAN_ANOMALY":275.4283,"EPHEMERIS_TYPE":0,"CLASSIFICATION_TYPE":"U","NORAD_CAT_ID":42956,"ELEMENT_SET_NO":999,"REV_AT_EPOCH":44741,"BSTAR":2.8528155e-5,"MEAN_MOTION_DOT":1.0e-6,"MEAN_MOTION_DDOT":0},{"OBJECT_NAME":"IRIDIUM 122","OBJECT_ID":"2017-061C","EPOCH":"2026-04-26T20:28:34.727808","MEAN_MOTION":14.34218074,"ECCENTRICITY":0.00022888,"INCLINATION":86.3988,"RA_OF_ASC_NODE":46.6382,"ARG_OF_PERICENTER":87.1631,"MEAN_ANOMALY":272.9827,"EPHEMERIS_TYPE":0,"CLASSIFICATION_TYPE":"U","NORAD_CAT_ID":42957,"ELEMENT_SET_NO":999,"REV_AT_EPOCH":44742,"BSTAR":3.8375911e-5,"MEAN_MOTION_DOT":1.27e-6,"MEAN_MOTION_DDOT":0},{"OBJECT_NAME":"IRIDIUM 129","OBJECT_ID":"2017-061D","EPOCH":"2026-04-26T21:05:06.682848","MEAN_MOTION":14.34217163,"ECCENTRICITY":0.00018284,"INCLINATION":86.3988,"RA_OF_ASC_NODE":46.6943,"ARG_OF_PERICENTER":86.5497,"MEAN_ANOMALY":273.5907,"EPHEMERIS_TYPE":0,"CLASSIFICATION_TYPE":"U","NORAD_CAT_ID":42958,"ELEMENT_SET_NO":999,"REV_AT_EPOCH":44744,"BSTAR":-2.14426e-5,"MEAN_MOTION_DOT":-4.0e-7,"MEAN_MOTION_DDOT":0},{"OBJECT_NAME":"IRIDIUM 119","OBJECT_ID":"2017-061E","EPOCH":"2026-04-26T20:19:26.732352","MEAN_MOTION":14.34217418,"ECCENTRICITY":0.00021191,"INCLINATION":86.3987,"RA_OF_ASC_NODE":46.7031,"ARG_OF_PERICENTER":88.4081,"MEAN_ANOMALY":271.7357,"EPHEMERIS_TYPE":0,"CLASSIFICATION_TYPE":"U","NORAD_CAT_ID":42959,"ELEMENT_SET_NO":999,"REV_AT_EPOCH":44745,"BSTAR":-8.388059e-6,"MEAN_MOTION_DOT":-4.0e-8,"MEAN_MOTION_DDOT":0},{"OBJECT_NAME":"IRIDIUM 107","OBJECT_ID":"2017-061F","EPOCH":"2026-04-26T20:46:50.791296","MEAN_MOTION":14.34217201,"ECCENTRICITY":0.00023516,"INCLINATION":86.3989,"RA_OF_ASC_NODE":46.7163,"ARG_OF_PERICENTER":87.1945,"MEAN_ANOMALY":272.952,"EPHEMERIS_TYPE":0,"CLASSIFICATION_TYPE":"U","NORAD_CAT_ID":42960,"ELEMENT_SET_NO":999,"REV_AT_EPOCH":44746,"BSTAR":-5.3004052e-5,"MEAN_MOTION_DOT":-1.29e-6,"MEAN_MOTION_DDOT":0},{"OBJECT_NAME":"IRIDIUM 132","OBJECT_ID":"2017-061G","EPOCH":"2026-04-26T20:55:58.728864","MEAN_MOTION":14.34217801,"ECCENTRICITY":0.00022582,"INCLINATION":86.3989,"RA_OF_ASC_NODE":46.693,"ARG_OF_PERICENTER":85.3731,"MEAN_ANOMALY":274.7722,"EPHEMERIS_TYPE":0,"CLASSIFICATION_TYPE":"U","NORAD_CAT_ID":42961,"ELEMENT_SET_NO":999,"REV_AT_EPOCH":44746,"BSTAR":3.523127e-6,"MEAN_MOTION_DOT":3.0e-7,"MEAN_MOTION_DDOT":0},{"OBJECT_NAME":"IRIDIUM 136","OBJECT_ID":"2017-061H","EPOCH":"2026-04-26T20:01:10.757856","MEAN_MOTION":14.34217377,"ECCENTRICITY":0.00021757,"INCLINATION":86.3988,"RA_OF_ASC_NODE":46.7157,"ARG_OF_PERICENTER":87.4511,"MEAN_ANOMALY":272.6934,"EPHEMERIS_TYPE":0,"CLASSIFICATION_TYPE":"U","NORAD_CAT_ID":42962,"ELEMENT_SET_NO":999,"REV_AT_EPOCH":44747,"BSTAR":-1.1357522e-5,"MEAN_MOTION_DOT":-1.2e-7,"MEAN_MOTION_DDOT":0},{"OBJECT_NAME":"IRIDIUM 139","OBJECT_ID":"2017-061J","EPOCH":"2026-04-26T20:10:18.716160","MEAN_MOTION":14.34217611,"ECCENTRICITY":0.00022144,"INCLINATION":86.399,"RA_OF_ASC_NODE":46.7742,"ARG_OF_PERICENTER":83.3597,"MEAN_ANOMALY":276.7851,"EPHEMERIS_TYPE":0,"CLASSIFICATION_TYPE":"U","NORAD_CAT_ID":42963,"ELEMENT_SET_NO":999,"REV_AT_EPOCH":44748,"BSTAR":-4.302887e-6,"MEAN_MOTION_DOT":8.0e-8,"MEAN_MOTION_DDOT":0},{"OBJECT_NAME":"IRIDIUM 125","OBJECT_ID":"2017-061K","EPOCH":"2026-04-26T21:32:30.753024","MEAN_MOTION":14.3421739,"ECCENTRICITY":0.0002284,"INCLINATION":86.399,"RA_OF_ASC_NODE":46.8103,"ARG_OF_PERICENTER":98.0064,"MEAN_ANOMALY":262.1391,"EPHEMERIS_TYPE":0,"CLASSIFICATION_TYPE":"U","NORAD_CAT_ID":42964,"ELEMENT_SET_NO":999,"REV_AT_EPOCH":44750,"BSTAR":-1.3213461e-5,"MEAN_MOTION_DOT":-1.7e-7,"MEAN_MOTION_DDOT":0},{"OBJECT_NAME":"IRIDIUM 135","OBJECT_ID":"2017-083A","EPOCH":"2026-04-26T17:34:19.138080","MEAN_MOTION":14.34218433,"ECCENTRICITY":0.00021819,"INCLINATION":86.3986,"RA_OF_ASC_NODE":343.5337,"ARG_OF_PERICENTER":86.0997,"MEAN_ANOMALY":274.0448,"EPHEMERIS_TYPE":0,"CLASSIFICATION_TYPE":"U","NORAD_CAT_ID":43070,"ELEMENT_SET_NO":999,"REV_AT_EPOCH":43677,"BSTAR":4.4366434e-5,"MEAN_MOTION_DOT":1.44e-6,"MEAN_MOTION_DDOT":0},{"OBJECT_NAME":"IRIDIUM 138","OBJECT_ID":"2017-083B","EPOCH":"2026-04-26T16:30:23.129280","MEAN_MOTION":14.34217564,"ECCENTRICITY":0.00018667,"INCLINATION":86.3993,"RA_OF_ASC_NODE":343.2396,"ARG_OF_PERICENTER":95.0022,"MEAN_ANOMALY":265.1387,"EPHEMERIS_TYPE":0,"CLASSIFICATION_TYPE":"U","NORAD_CAT_ID":43071,"ELEMENT_SET_NO":999,"REV_AT_EPOCH":43675,"BSTAR":-4.895064e-6,"MEAN_MOTION_DOT":6.0e-8,"MEAN_MOTION_DDOT":0},{"OBJECT_NAME":"IRIDIUM 116","OBJECT_ID":"2017-083C","EPOCH":"2026-04-26T17:25:11.420832","MEAN_MOTION":14.34211408,"ECCENTRICITY":0.00023822,"INCLINATION":86.3983,"RA_OF_ASC_NODE":343.5232,"ARG_OF_PERICENTER":79.4355,"MEAN_ANOMALY":280.7109,"EPHEMERIS_TYPE":0,"CLASSIFICATION_TYPE":"U","NORAD_CAT_ID":43072,"ELEMENT_SET_NO":999,"REV_AT_EPOCH":43679,"BSTAR":7.6591926e-5,"MEAN_MOTION_DOT":2.34e-6,"MEAN_MOTION_DDOT":0},{"OBJECT_NAME":"IRIDIUM 130","OBJECT_ID":"2017-083D","EPOCH":"2026-04-26T16:39:31.223232","MEAN_MOTION":14.34217351,"ECCENTRICITY":0.00023029,"INCLINATION":86.3989,"RA_OF_ASC_NODE":343.806,"ARG_OF_PERICENTER":85.0818,"MEAN_ANOMALY":275.0641,"EPHEMERIS_TYPE":0,"CLASSIFICATION_TYPE":"U","NORAD_CAT_ID":43073,"ELEMENT_SET_NO":999,"REV_AT_EPOCH":43673,"BSTAR":-2.1481712e-5,"MEAN_MOTION_DOT":-4.0e-7,"MEAN_MOTION_DDOT":0}]
